[{"OBJECT_NAME":"THEOS","OBJECT_ID":"2008-049A","EPOCH":"2026-03-09T23:28:13.334304","MEAN_MOTION":14.20116597,"ECCENTRICITY":0.00010425,"INCLINATION":98.5696,"RA_OF_ASC_NODE":129.4305,"ARG_OF_PERICENTER":90.3146,"MEAN_ANOMALY":269.8151,"EPHEMERIS_TYPE":0,"CLASSIFICATION_TYPE":"U","NORAD_CAT_ID":33396,"ELEMENT_SET_NO":999,"REV_AT_EPOCH":90388,"BSTAR":-7.5504934e-5,"MEAN_MOTION_DOT":-2.03e-6,"MEAN_MOTION_DDOT":0},{"OBJECT_NAME":"UNKNOWN","OBJECT_ID":"","EPOCH":"2026-03-09T00:05:29.821632","MEAN_MOTION":14.2124485,"ECCENTRICITY":0.00093337,"INCLINATION":81.2101,"RA_OF_ASC_NODE":311.0816,"ARG_OF_PERICENTER":30.9781,"MEAN_ANOMALY":329.1944,"EPHEMERIS_TYPE":0,"CLASSIFICATION_TYPE":"U","NORAD_CAT_ID":270316,"ELEMENT_SET_NO":999,"REV_AT_EPOCH":27635,"BSTAR":0.0021418311,"MEAN_MOTION_DOT":4.678e-5,"MEAN_MOTION_DDOT":0}]
